"2022 KL3" "Sol" 
{ 
	Class "asteroid" 
	Texture "asteroid.jpg" 
	Radius 0.045       # Calculated from Absolute Mag
	Mesh "asteroid.cms"

	EllipticalOrbit 
	{ 
	Epoch       2459718.5   
	Period            3.185730192537295
	SemiMajorAxis     2.165046322806603
	Eccentricity      0.4173982748318124
	Inclination      6.069055017701936
	AscendingNode    164.0484087215831
	ArgOfPericenter  115.020672056811
	MeanAnomaly     344.3173546869518
	} 

	InfoURL "https://ssd.jpl.nasa.gov/tools/sbdb_lookup.html#/?sstr=2022%20KL3"

	UniformRotation
	{
	Period         10 # Arbitrary 
	}

	Absmag    22.864
    Albedo    0.15 
}

"2022 KM3" "Sol" 
{ 
	Class "asteroid" 
	Texture "asteroid.jpg" 
	Radius 0.042       # Calculated from Absolute Mag
	Mesh "asteroid.cms"

	EllipticalOrbit 
	{ 
	Epoch       2459726.5   
	Period            2.488552377153807
	SemiMajorAxis     1.836365207009586
	Eccentricity      0.6022161812544096
	Inclination      31.71833055483339
	AscendingNode    62.61749153143464
	ArgOfPericenter  258.9898051269811
	MeanAnomaly     338.8020925110646
	} 

	InfoURL "https://ssd.jpl.nasa.gov/tools/sbdb_lookup.html#/?sstr=2022%20KM3"

	UniformRotation
	{
	Period         10 # Arbitrary 
	}

	Absmag    23.012
    Albedo    0.15 
}

"2022 KN3" "Sol" 
{ 
	Class "asteroid" 
	Texture "asteroid.jpg" 
	Radius 0.018       # Calculated from Absolute Mag
	Mesh "asteroid.cms"

	EllipticalOrbit 
	{ 
	Epoch       2459727.5   
	Period            2.975990344770768
	SemiMajorAxis     2.068944672984536
	Eccentricity      0.6171803027987701
	Inclination      3.688952686804738
	AscendingNode    226.7082543846961
	ArgOfPericenter  312.6802845883265
	MeanAnomaly     15.01115548369821
	} 

	InfoURL "https://ssd.jpl.nasa.gov/tools/sbdb_lookup.html#/?sstr=2022%20KN3"

	UniformRotation
	{
	Period         10 # Arbitrary 
	}

	Absmag    24.796
    Albedo    0.15 
}

"2022 KO3" "Sol" 
{ 
	Class "asteroid" 
	Texture "asteroid.jpg" 
	Radius 0.004       # Calculated from Absolute Mag
	Mesh "asteroid.cms"

	EllipticalOrbit 
	{ 
	Epoch       2459600.5   
	Period            3.024315083509227
	SemiMajorAxis     2.091281788333828
	Eccentricity      0.536468895470591
	Inclination      4.320859581959605
	AscendingNode    67.69931086480044
	ArgOfPericenter  210.5851799195399
	MeanAnomaly     310.0302278210726
	} 

	InfoURL "https://ssd.jpl.nasa.gov/tools/sbdb_lookup.html#/?sstr=2022%20KO3"

	UniformRotation
	{
	Period         10 # Arbitrary 
	}

	Absmag    28.041
    Albedo    0.15 
}

"2022 KP3" "Sol" 
{ 
	Class "asteroid" 
	Texture "asteroid.jpg" 
	Radius 0.003       # Calculated from Absolute Mag
	Mesh "asteroid.cms"

	EllipticalOrbit 
	{ 
	Epoch       2459600.5   
	Period            1.513010548915838
	SemiMajorAxis     1.31792036571481
	Eccentricity      0.2920186792713088
	Inclination      1.273875259303182
	AscendingNode    60.01678678034294
	ArgOfPericenter  243.0000753231667
	MeanAnomaly     245.2781287649357
	} 

	InfoURL "https://ssd.jpl.nasa.gov/tools/sbdb_lookup.html#/?sstr=2022%20KP3"

	UniformRotation
	{
	Period         10 # Arbitrary 
	}

	Absmag    28.461
    Albedo    0.15 
}

"2022 KT3" "Sol" 
{ 
	Class "asteroid" 
	Texture "asteroid.jpg" 
	Radius 0.016       # Calculated from Absolute Mag
	Mesh "asteroid.cms"

	EllipticalOrbit 
	{ 
	Epoch       2459726.5   
	Period            1.345660279356528
	SemiMajorAxis     1.218853439872511
	Eccentricity      0.2700158657345407
	Inclination      2.493649259522755
	AscendingNode    131.2381262455428
	ArgOfPericenter  192.0919946609367
	MeanAnomaly     308.8370772291354
	} 

	InfoURL "https://ssd.jpl.nasa.gov/tools/sbdb_lookup.html#/?sstr=2022%20KT3"

	UniformRotation
	{
	Period         10 # Arbitrary 
	}

	Absmag    25.082
    Albedo    0.15 
}

"2022 KU3" "Sol" 
{ 
	Class "asteroid" 
	Texture "asteroid.jpg" 
	Radius 0.043       # Calculated from Absolute Mag
	Mesh "asteroid.cms"

	EllipticalOrbit 
	{ 
	Epoch       2459723.5   
	Period            1.516009572322138
	SemiMajorAxis     1.319661340329664
	Eccentricity      0.1364650689629979
	Inclination      21.92466406601886
	AscendingNode    49.085453544788
	ArgOfPericenter  268.0423641707659
	MeanAnomaly     294.521964234096
	} 

	InfoURL "https://ssd.jpl.nasa.gov/tools/sbdb_lookup.html#/?sstr=2022%20KU3"

	UniformRotation
	{
	Period         10 # Arbitrary 
	}

	Absmag    22.972
    Albedo    0.15 
}

"2022 KV3" "Sol" 
{ 
	Class "asteroid" 
	Texture "asteroid.jpg" 
	Radius 0.011       # Calculated from Absolute Mag
	Mesh "asteroid.cms"

	EllipticalOrbit 
	{ 
	Epoch       2459726.5   
	Period            1.690241500668173
	SemiMajorAxis     1.418928044195163
	Eccentricity      0.2644854474579709
	Inclination      3.364534093295632
	AscendingNode    228.8522244517766
	ArgOfPericenter  22.49135209804023
	MeanAnomaly     355.4689511709126
	} 

	InfoURL "https://ssd.jpl.nasa.gov/tools/sbdb_lookup.html#/?sstr=2022%20KV3"

	UniformRotation
	{
	Period         10 # Arbitrary 
	}

	Absmag    25.908
    Albedo    0.15 
}

"2022 KW3" "Sol" 
{ 
	Class "asteroid" 
	Texture "asteroid.jpg" 
	Radius 0.023       # Calculated from Absolute Mag
	Mesh "asteroid.cms"

	EllipticalOrbit 
	{ 
	Epoch       2459724.5   
	Period            3.516019861004821
	SemiMajorAxis     2.312217825216949
	Eccentricity      0.4962051844583755
	Inclination      2.167709307848458
	AscendingNode    183.2478241477307
	ArgOfPericenter  64.1905459426283
	MeanAnomaly     357.9556061588993
	} 

	InfoURL "https://ssd.jpl.nasa.gov/tools/sbdb_lookup.html#/?sstr=2022%20KW3"

	UniformRotation
	{
	Period         10 # Arbitrary 
	}

	Absmag    24.32
    Albedo    0.15 
}

"2022 KA4" "Sol" 
{ 
	Class "asteroid" 
	Texture "asteroid.jpg" 
	Radius 0.259       # Calculated from Absolute Mag
	Mesh "asteroid.cms"

	EllipticalOrbit 
	{ 
	Epoch       2459600.5   
	Period            3.473316651949169
	SemiMajorAxis     2.293457961984882
	Eccentricity      0.6373299615553912
	Inclination      10.29975899622336
	AscendingNode    110.5768676197807
	ArgOfPericenter  248.086007004256
	MeanAnomaly     274.3054809360176
	} 

	InfoURL "https://ssd.jpl.nasa.gov/tools/sbdb_lookup.html#/?sstr=2022%20KA4"

	UniformRotation
	{
	Period         10 # Arbitrary 
	}

	Absmag    19.104
    Albedo    0.15 
}

"2022 KB4" "Sol" 
{ 
	Class "asteroid" 
	Texture "asteroid.jpg" 
	Radius 0.023       # Calculated from Absolute Mag
	Mesh "asteroid.cms"

	EllipticalOrbit 
	{ 
	Epoch       2459725.5   
	Period            2.987266917766292
	SemiMajorAxis     2.074167785001191
	Eccentricity      0.4760521995237879
	Inclination      2.13871849689571
	AscendingNode    190.0206870319614
	ArgOfPericenter  51.46419829310539
	MeanAnomaly     359.6997211900899
	} 

	InfoURL "https://ssd.jpl.nasa.gov/tools/sbdb_lookup.html#/?sstr=2022%20KB4"

	UniformRotation
	{
	Period         10 # Arbitrary 
	}

	Absmag    24.285
    Albedo    0.15 
}

"2022 KC4" "Sol" 
{ 
	Class "asteroid" 
	Texture "asteroid.jpg" 
	Radius 0.009       # Calculated from Absolute Mag
	Mesh "asteroid.cms"

	EllipticalOrbit 
	{ 
	Epoch       2459600.5   
	Period            1.609073776615772
	SemiMajorAxis     1.373130571950132
	Eccentricity      0.4066601289660917
	Inclination      7.086594622972659
	AscendingNode    75.72740618012219
	ArgOfPericenter  247.3188443975822
	MeanAnomaly     246.2342780120585
	} 

	InfoURL "https://ssd.jpl.nasa.gov/tools/sbdb_lookup.html#/?sstr=2022%20KFC4"

	UniformRotation
	{
	Period         10 # Arbitrary 
	}

	Absmag    26.353
    Albedo    0.15 
}

"2022 KD4" "Sol" 
{ 
	Class "asteroid" 
	Texture "asteroid.jpg" 
	Radius 0.026       # Calculated from Absolute Mag
	Mesh "asteroid.cms"

	EllipticalOrbit 
	{ 
	Epoch       2459600.5   
	Period            1.440558973444355
	SemiMajorAxis     1.275504200620173
	Eccentricity      0.1813627643827367
	Inclination      4.361323593036552
	AscendingNode    105.7810493892105
	ArgOfPericenter  203.2627763608143
	MeanAnomaly     224.0263498469185
	} 

	InfoURL "https://ssd.jpl.nasa.gov/tools/sbdb_lookup.html#/?sstr=2022%20KD4"

	UniformRotation
	{
	Period         10 # Arbitrary 
	}

	Absmag    24.086
    Albedo    0.15 
}

"2022 KJ4" "Sol" 
{ 
	Class "asteroid" 
	Texture "asteroid.jpg" 
	Radius 0.022       # Calculated from Absolute Mag
	Mesh "asteroid.cms"

	EllipticalOrbit 
	{ 
	Epoch       2459728.5   
	Period            1.752875874367243
	SemiMajorAxis     1.453768678091463
	Eccentricity      0.285274708007535
	Inclination      11.38454187479336
	AscendingNode    79.09744089174265
	ArgOfPericenter  219.718716848998
	MeanAnomaly    329.22576519116
	} 

	InfoURL "https://ssd.jpl.nasa.gov/tools/sbdb_lookup.html#/?sstr=2022%20KJ4"

	UniformRotation
	{
	Period         10 # Arbitrary 
	}

	Absmag    24.371
    Albedo    0.15 
}

